start=new Date('2021-11-16T00:00:00.000Z').valueOf();
sats=[{"LAUNCH_DATE":"2019-11-11","OBJECT_ID":"2019-074R","TIME_SYSTEM":"UTC","TLE_LINE1":"1 44728U 19074R   21319.46347472 -.00036497  11429-4 -10253-3 0  9995","TLE_LINE2":"2 44728  53.0543  15.4547 0002339  12.6798 347.4286 15.90922995111922","CENTER_NAME":"EARTH","REV_AT_EPOCH":"11192","DECAY_DATE":null,"ECCENTRICITY":"0.00023390","ELEMENT_SET_NO":"999","OBJECT_TYPE":"PAYLOAD","BSTAR":"-0.00010253000000","EPOCH":"2021-11-15T11:07:24.215808","INCLINATION":"53.0543","GP_ID":"189808394","REF_FRAME":"TEME","EPHEMERIS_TYPE":"0","OBJECT_NAME":"STARLINK-1023","PERIAPSIS":"298.139","NORAD_CAT_ID":"44728","PERIOD":"90.513","CLASSIFICATION_TYPE":"U","MEAN_MOTION_DOT":"-0.00036497","SEMIMAJOR_AXIS":"6677.836","MEAN_MOTION":"15.90922995","RCS_SIZE":"LARGE","FILE":"3215681","MEAN_MOTION_DDOT":"0.0000114290000","COUNTRY_CODE":"US","SITE":"AFETR","MEAN_ANOMALY":"347.4286","MEAN_ELEMENT_THEORY":"SGP4","RA_OF_ASC_NODE":"15.4547","ARG_OF_PERICENTER":"12.6798","APOAPSIS":"301.263"},{"CENTER_NAME":"EARTH","REV_AT_EPOCH":"11111","TLE_LINE1":"1 44729U 19074S   21319.75002124  .00003976  00000-0  27295-3 0  9997","TLE_LINE2":"2 44729  53.0015  73.4614 0001745  80.4243 279.6943 15.08117965111113","TIME_SYSTEM":"UTC","OBJECT_ID":"2019-074S","LAUNCH_DATE":"2019-11-11","GP_ID":"189835434","OBJECT_TYPE":"PAYLOAD","BSTAR":"0.00027295000000","EPOCH":"2021-11-15T18:00:01.835136","INCLINATION":"53.0015","DECAY_DATE":null,"ECCENTRICITY":"0.00017450","ELEMENT_SET_NO":"999","MEAN_MOTION":"15.08117965","CLASSIFICATION_TYPE":"U","PERIOD":"95.483","NORAD_CAT_ID":"44729","MEAN_MOTION_DOT":"0.00003976","SEMIMAJOR_AXIS":"6920.088","EPHEMERIS_TYPE":"0","OBJECT_NAME":"STARLINK-1024","PERIAPSIS":"540.746","REF_FRAME":"TEME","APOAPSIS":"543.161","COUNTRY_CODE":"US","SITE":"AFETR","MEAN_ELEMENT_THEORY":"SGP4","MEAN_ANOMALY":"279.6943","RA_OF_ASC_NODE":"73.4614","ARG_OF_PERICENTER":"80.4243","FILE":"3215928","MEAN_MOTION_DDOT":"0.0000000000000","RCS_SIZE":"LARGE"},{"GP_ID":"189836685","INCLINATION":"53.0547","EPOCH":"2021-11-15T17:50:50.074368","BSTAR":"0.00002429700000","OBJECT_TYPE":"PAYLOAD","ECCENTRICITY":"0.00011140","DECAY_DATE":null,"ELEMENT_SET_NO":"999","CENTER_NAME":"EARTH","REV_AT_EPOCH":"11136","TLE_LINE2":"2 44731  53.0547  56.8292 0001114  76.3765 283.7348 15.06397173111367","TLE_LINE1":"1 44731U 19074U   21319.74363512  .00000081  00000-0  24297-4 0  9994","TIME_SYSTEM":"UTC","OBJECT_ID":"2019-074U","LAUNCH_DATE":"2019-11-11","APOAPSIS":"547.994","SITE":"AFETR","MEAN_ANOMALY":"283.7348","MEAN_ELEMENT_THEORY":"SGP4","COUNTRY_CODE":"US","ARG_OF_PERICENTER":"76.3765","RA_OF_ASC_NODE":"56.8292","MEAN_MOTION_DDOT":"0.0000000000000","FILE":"3215928","RCS_SIZE":"LARGE","MEAN_MOTION":"15.06397173","MEAN_MOTION_DOT":"0.00000081","PERIOD":"95.592","CLASSIFICATION_TYPE":"U","NORAD_CAT_ID":"44731","SEMIMAJOR_AXIS":"6925.357","EPHEMERIS_TYPE":"0","OBJECT_NAME":"STARLINK-1026","PERIAPSIS":"546.451","REF_FRAME":"TEME"},{"TLE_LINE1":"1 44732U 19074V   21319.79707984 -.00000450  00000-0 -11291-4 0  9997","TLE_LINE2":"2 44732  53.0544  76.5911 0001297  94.4042 265.7095 15.06395848111099","CENTER_NAME":"EARTH","REV_AT_EPOCH":"11109","LAUNCH_DATE":"2019-11-11","TIME_SYSTEM":"UTC","OBJECT_ID":"2019-074V","GP_ID":"189836936","DECAY_DATE":null,"ECCENTRICITY":"0.00012970","ELEMENT_SET_NO":"999","OBJECT_TYPE":"PAYLOAD","BSTAR":"-0.00001129100000","EPOCH":"2021-11-15T19:07:47.698176","INCLINATION":"53.0544","PERIOD":"95.592","CLASSIFICATION_TYPE":"U","NORAD_CAT_ID":"44732","MEAN_MOTION_DOT":"-0.00000450","SEMIMAJOR_AXIS":"6925.361","MEAN_MOTION":"15.06395848","REF_FRAME":"TEME","OBJECT_NAME":"STARLINK-1027","EPHEMERIS_TYPE":"0","PERIAPSIS":"546.328","COUNTRY_CODE":"US","MEAN_ANOMALY":"265.7095","SITE":"AFETR","MEAN_ELEMENT_THEORY":"SGP4","RA_OF_ASC_NODE":"76.5911","ARG_OF_PERICENTER":"94.4042","APOAPSIS":"548.125","RCS_SIZE":"LARGE","FILE":"3215928","MEAN_MOTION_DDOT":"0.0000000000000"},{"BSTAR":"-0.00000100050000","OBJECT_TYPE":"PAYLOAD","INCLINATION":"53.0564","EPOCH":"2021-11-15T15:54:03.816288","ELEMENT_SET_NO":"999","DECAY_DATE":null,"ECCENTRICITY":"0.00010030","GP_ID":"189835684","OBJECT_ID":"2019-074W","TIME_SYSTEM":"UTC","LAUNCH_DATE":"2019-11-11","REV_AT_EPOCH":"11135","CENTER_NAME":"EARTH","TLE_LINE1":"1 44733U 19074W   21319.66254417 -.00000296  00000-0 -10005-5 0  9993","TLE_LINE2":"2 44733  53.0564  57.1947 0001003  80.6499 279.4604 15.06394412111357","FILE":"3215928","MEAN_MOTION_DDOT":"0.0000000000000","RCS_SIZE":"LARGE","APOAPSIS":"547.925","RA_OF_ASC_NODE":"57.1947","ARG_OF_PERICENTER":"80.6499","COUNTRY_CODE":"US","SITE":"AFETR","MEAN_ANOMALY":"279.4604","MEAN_ELEMENT_THEORY":"SGP4","PERIAPSIS":"546.536","OBJECT_NAME":"STARLINK-1028","EPHEMERIS_TYPE":"0","REF_FRAME":"TEME","MEAN_MOTION":"15.06394412","SEMIMAJOR_AXIS":"6925.366","NORAD_CAT_ID":"44733","PERIOD":"95.592","CLASSIFICATION_TYPE":"U","MEAN_MOTION_DOT":"-0.00000296"},{"DECAY_DATE":null,"ECCENTRICITY":"0.00017200","ELEMENT_SET_NO":"999","OBJECT_TYPE":"PAYLOAD","BSTAR":"0.00029826000000","INCLINATION":"53.0479","EPOCH":"2021-11-15T21:01:55.008768","GP_ID":"189835934","LAUNCH_DATE":"2019-11-11","OBJECT_ID":"2019-074X","TIME_SYSTEM":"UTC","TLE_LINE1":"1 44734U 19074X   21319.87633112  .00004164  00000-0  29826-3 0  9995","TLE_LINE2":"2 44734  53.0479 336.2145 0001720  65.5679 294.5489 15.06399583112480","CENTER_NAME":"EARTH","REV_AT_EPOCH":"11248","RCS_SIZE":"LARGE","FILE":"3215928","MEAN_MOTION_DDOT":"0.0000000000000","COUNTRY_CODE":"US","MEAN_ANOMALY":"294.5489","SITE":"AFETR","MEAN_ELEMENT_THEORY":"SGP4","RA_OF_ASC_NODE":"336.2145","ARG_OF_PERICENTER":"65.5679","APOAPSIS":"548.406","REF_FRAME":"TEME","OBJECT_NAME":"STARLINK-1029","EPHEMERIS_TYPE":"0","PERIAPSIS":"546.024","CLASSIFICATION_TYPE":"U","PERIOD":"95.592","NORAD_CAT_ID":"44734","MEAN_MOTION_DOT":"0.00004164","SEMIMAJOR_AXIS":"6925.350","MEAN_MOTION":"15.06399583"},{"LAUNCH_DATE":"2019-11-11","OBJECT_ID":"2019-074Y","TIME_SYSTEM":"UTC","TLE_LINE1":"1 44735U 19074Y   21319.60540748  .00000297  00000-0  38821-4 0  9998","TLE_LINE2":"2 44735  53.0550  77.4564 0001292  81.1039 279.0096 15.06408618111063","REV_AT_EPOCH":"11106","CENTER_NAME":"EARTH","ELEMENT_SET_NO":"999","DECAY_DATE":null,"ECCENTRICITY":"0.00012920","OBJECT_TYPE":"PAYLOAD","BSTAR":"0.00003882100000","INCLINATION":"53.0550","EPOCH":"2021-11-15T14:31:47.206272","GP_ID":"189806892","REF_FRAME":"TEME","PERIAPSIS":"546.292","EPHEMERIS_TYPE":"0","OBJECT_NAME":"STARLINK-1030","SEMIMAJOR_AXIS":"6925.322","NORAD_CAT_ID":"44735","PERIOD":"95.592","CLASSIFICATION_TYPE":"U","MEAN_MOTION_DOT":"0.00000297","MEAN_MOTION":"15.06408618","RCS_SIZE":"LARGE","FILE":"3215681","MEAN_MOTION_DDOT":"0.0000000000000","RA_OF_ASC_NODE":"77.4564","ARG_OF_PERICENTER":"81.1039","COUNTRY_CODE":"US","MEAN_ANOMALY":"279.0096","SITE":"AFETR","MEAN_ELEMENT_THEORY":"SGP4","APOAPSIS":"548.082"},{"CENTER_NAME":"EARTH","REV_AT_EPOCH":"11107","TLE_LINE2":"2 44736  53.0542  77.3866 0001336  89.9724 270.1418 15.06411410111070","TLE_LINE1":"1 44736U 19074Z   21319.62016245  .00004614  00000-0  32834-3 0  9995","TIME_SYSTEM":"UTC","OBJECT_ID":"2019-074Z","LAUNCH_DATE":"2019-11-11","GP_ID":"189807644","INCLINATION":"53.0542","EPOCH":"2021-11-15T14:53:02.035680","OBJECT_TYPE":"PAYLOAD","BSTAR":"0.00032834000000","ECCENTRICITY":"0.00013360","DECAY_DATE":null,"ELEMENT_SET_NO":"999","MEAN_MOTION":"15.06411410","MEAN_MOTION_DOT":"0.00004614","CLASSIFICATION_TYPE":"U","PERIOD":"95.591","NORAD_CAT_ID":"44736","SEMIMAJOR_AXIS":"6925.314","EPHEMERIS_TYPE":"0","OBJECT_NAME":"STARLINK-1031","PERIAPSIS":"546.253","REF_FRAME":"TEME","APOAPSIS":"548.104","SITE":"AFETR","MEAN_ANOMALY":"270.1418","MEAN_ELEMENT_THEORY":"SGP4","COUNTRY_CODE":"US","ARG_OF_PERICENTER":"89.9724","RA_OF_ASC_NODE":"77.3866","MEAN_MOTION_DDOT":"0.0000000000000","FILE":"3215681","RCS_SIZE":"LARGE"},{"APOAPSIS":"548.131","RA_OF_ASC_NODE":"76.7438","ARG_OF_PERICENTER":"84.3201","COUNTRY_CODE":"US","MEAN_ANOMALY":"275.7943","SITE":"AFETR","MEAN_ELEMENT_THEORY":"SGP4","FILE":"3215928","MEAN_MOTION_DDOT":"0.0000000000000","RCS_SIZE":"LARGE","MEAN_MOTION":"15.06407836","SEMIMAJOR_AXIS":"6925.325","CLASSIFICATION_TYPE":"U","PERIOD":"95.592","NORAD_CAT_ID":"44737","MEAN_MOTION_DOT":"-0.00000387","PERIAPSIS":"546.248","EPHEMERIS_TYPE":"0","OBJECT_NAME":"STARLINK-1032","REF_FRAME":"TEME","GP_ID":"189835185","BSTAR":"-0.00000708890000","OBJECT_TYPE":"PAYLOAD","EPOCH":"2021-11-15T18:20:00.946176","INCLINATION":"53.0556","ELEMENT_SET_NO":"999","DECAY_DATE":null,"ECCENTRICITY":"0.00013600","REV_AT_EPOCH":"11109","CENTER_NAME":"EARTH","TLE_LINE1":"1 44737U 19074AA  21319.76389984 -.00000387  00000-0 -70889-5 0  9993","TLE_LINE2":"2 44737  53.0556  76.7438 0001360  84.3201 275.7943 15.06407836111093","TIME_SYSTEM":"UTC","OBJECT_ID":"2019-074AA","LAUNCH_DATE":"2019-11-11"},{"RCS_SIZE":"LARGE","FILE":"3215928","MEAN_MOTION_DDOT":"0.0000000000000","COUNTRY_CODE":"US","SITE":"AFETR","MEAN_ANOMALY":"262.7054","MEAN_ELEMENT_THEORY":"SGP4","RA_OF_ASC_NODE":"76.7929","ARG_OF_PERICENTER":"97.4097","APOAPSIS":"548.206","REF_FRAME":"TEME","EPHEMERIS_TYPE":"0","OBJECT_NAME":"STARLINK-1033","PERIAPSIS":"546.238","PERIOD":"95.592","NORAD_CAT_ID":"44738","CLASSIFICATION_TYPE":"U","MEAN_MOTION_DOT":"-0.00000906","SEMIMAJOR_AXIS":"6925.357","MEAN_MOTION":"15.06397318","DECAY_DATE":null,"ECCENTRICITY":"0.00014210","ELEMENT_SET_NO":"999","OBJECT_TYPE":"PAYLOAD","BSTAR":"-0.00004192600000","EPOCH":"2021-11-15T17:58:47.619264","INCLINATION":"53.0547","GP_ID":"189835435","LAUNCH_DATE":"2019-11-11","OBJECT_ID":"2019-074AB","TIME_SYSTEM":"UTC","TLE_LINE1":"1 44738U 19074AB  21319.74916226 -.00000906  00000-0 -41926-4 0  9993","TLE_LINE2":"2 44738  53.0547  76.7929 0001421  97.4097 262.7054 15.06397318111086","CENTER_NAME":"EARTH","REV_AT_EPOCH":"11108"}];
